STARLINK-36033          
1 66893U 25283R   26068.26396658  .00018656  00000+0  64068-3 0  9991
2 66893  53.1627  26.5248 0001106 106.8453 253.2670 15.30186705 15771
GLOBAL-34               
1 68098U 26043A   26068.47466435  .00014018  00000+0  45822-3 0  9994
2 68098  42.0215  76.7399 0006884 289.2632  70.7460 15.31488019   538
